start=new Date('2021-12-25T00:00:00.000Z').valueOf();
sats=[{"TLE_LINE2":"2 48647  53.0544 176.0468 0002606  89.3769 270.7518 15.06390813 32236","EPOCH":"2021-12-24T21:35:45.261888","COUNTRY_CODE":"US","CENTER_NAME":"EARTH","RCS_SIZE":"LARGE","DECAY_DATE":null,"FILE":"3250462","MEAN_ELEMENT_THEORY":"SGP4","SEMIMAJOR_AXIS":"6925.377","GP_ID":"192399543","PERIAPSIS":"545.437","NORAD_CAT_ID":"48647","OBJECT_NAME":"STARLINK-2691","LAUNCH_DATE":"2021-05-26","MEAN_MOTION_DDOT":"0.0000000000000","CLASSIFICATION_TYPE":"U","MEAN_ANOMALY":"270.7518","APOAPSIS":"549.046","ARG_OF_PERICENTER":"89.3769","REF_FRAME":"TEME","RA_OF_ASC_NODE":"176.0468","PERIOD":"95.593","TLE_LINE1":"1 48647U 21044K   21358.89982942 -.00000939  00000-0 -44121-4 0  9999","OBJECT_TYPE":"PAYLOAD","MEAN_MOTION":"15.06390813","MEAN_MOTION_DOT":"-0.00000939","ELEMENT_SET_NO":"999","REV_AT_EPOCH":"3223","INCLINATION":"53.0544","EPHEMERIS_TYPE":"0","BSTAR":"-0.00004412100000","TIME_SYSTEM":"UTC","OBJECT_ID":"2021-044K","SITE":"AFETR","ECCENTRICITY":"0.00026060"},{"FILE":"3250462","MEAN_ELEMENT_THEORY":"SGP4","DECAY_DATE":null,"CENTER_NAME":"EARTH","RCS_SIZE":"LARGE","COUNTRY_CODE":"US","TLE_LINE2":"2 48648  53.0547 176.0480 0002628  89.8819 270.2471 15.06383039 32234","EPOCH":"2021-12-24T21:34:25.013568","MEAN_ANOMALY":"270.2471","APOAPSIS":"549.086","ARG_OF_PERICENTER":"89.8819","MEAN_MOTION_DDOT":"0.0000000000000","CLASSIFICATION_TYPE":"U","PERIAPSIS":"545.446","NORAD_CAT_ID":"48648","OBJECT_NAME":"STARLINK-2521","LAUNCH_DATE":"2021-05-26","SEMIMAJOR_AXIS":"6925.401","GP_ID":"192398363","MEAN_MOTION":"15.06383039","OBJECT_TYPE":"PAYLOAD","PERIOD":"95.593","TLE_LINE1":"1 48648U 21044L   21358.89890062  .00000688  00000-0  65141-4 0  9995","REF_FRAME":"TEME","RA_OF_ASC_NODE":"176.0480","TIME_SYSTEM":"UTC","OBJECT_ID":"2021-044L","ECCENTRICITY":"0.00026280","SITE":"AFETR","ELEMENT_SET_NO":"999","INCLINATION":"53.0547","REV_AT_EPOCH":"3223","BSTAR":"0.00006514100000","EPHEMERIS_TYPE":"0","MEAN_MOTION_DOT":"0.00000688"},{"TLE_LINE2":"2 48649  53.0530 176.0553 0002660  82.4868 277.6423 15.06404511 32223","EPOCH":"2021-12-24T21:30:26.201376","COUNTRY_CODE":"US","RCS_SIZE":"LARGE","CENTER_NAME":"EARTH","DECAY_DATE":null,"MEAN_ELEMENT_THEORY":"SGP4","FILE":"3250462","GP_ID":"192398599","SEMIMAJOR_AXIS":"6925.335","LAUNCH_DATE":"2021-05-26","OBJECT_NAME":"STARLINK-2673","PERIAPSIS":"545.358","NORAD_CAT_ID":"48649","CLASSIFICATION_TYPE":"U","MEAN_MOTION_DDOT":"0.0000000000000","ARG_OF_PERICENTER":"82.4868","MEAN_ANOMALY":"277.6423","APOAPSIS":"549.042","RA_OF_ASC_NODE":"176.0553","REF_FRAME":"TEME","TLE_LINE1":"1 48649U 21044M   21358.89613659  .00002200  00000-0  16652-3 0  9995","PERIOD":"95.592","OBJECT_TYPE":"PAYLOAD","MEAN_MOTION":"15.06404511","MEAN_MOTION_DOT":"0.00002200","BSTAR":"0.00016652000000","EPHEMERIS_TYPE":"0","REV_AT_EPOCH":"3222","INCLINATION":"53.0530","ELEMENT_SET_NO":"999","ECCENTRICITY":"0.00026600","SITE":"AFETR","OBJECT_ID":"2021-044M","TIME_SYSTEM":"UTC"},{"BSTAR":"0.00015699000000","EPHEMERIS_TYPE":"0","ELEMENT_SET_NO":"999","INCLINATION":"53.0536","REV_AT_EPOCH":"3222","OBJECT_ID":"2021-044N","TIME_SYSTEM":"UTC","ECCENTRICITY":"0.00026990","SITE":"AFETR","MEAN_MOTION_DOT":"0.00002056","OBJECT_TYPE":"PAYLOAD","MEAN_MOTION":"15.06387370","RA_OF_ASC_NODE":"176.0765","REF_FRAME":"TEME","TLE_LINE1":"1 48650U 21044N   21358.89247714  .00002056  00000-0  15699-3 0  9991","PERIOD":"95.593","CLASSIFICATION_TYPE":"U","MEAN_MOTION_DDOT":"0.0000000000000","APOAPSIS":"549.121","MEAN_ANOMALY":"268.2968","ARG_OF_PERICENTER":"91.8330","GP_ID":"192399778","SEMIMAJOR_AXIS":"6925.387","OBJECT_NAME":"STARLINK-2672","LAUNCH_DATE":"2021-05-26","NORAD_CAT_ID":"48650","PERIAPSIS":"545.383","DECAY_DATE":null,"MEAN_ELEMENT_THEORY":"SGP4","FILE":"3250462","COUNTRY_CODE":"US","TLE_LINE2":"2 48650  53.0536 176.0765 0002699  91.8330 268.2968 15.06387370 32229","EPOCH":"2021-12-24T21:25:10.024896","CENTER_NAME":"EARTH","RCS_SIZE":"LARGE"},{"RCS_SIZE":"LARGE","CENTER_NAME":"EARTH","TLE_LINE2":"2 48651  53.0553 176.3813 0002322  86.4745 273.6509 15.06394896 32210","EPOCH":"2021-12-24T19:44:18.560256","COUNTRY_CODE":"US","MEAN_ELEMENT_THEORY":"SGP4","FILE":"3250462","DECAY_DATE":null,"LAUNCH_DATE":"2021-05-26","OBJECT_NAME":"STARLINK-2731","PERIAPSIS":"545.621","NORAD_CAT_ID":"48651","GP_ID":"192400014","SEMIMAJOR_AXIS":"6925.364","ARG_OF_PERICENTER":"86.4745","APOAPSIS":"548.837","MEAN_ANOMALY":"273.6509","CLASSIFICATION_TYPE":"U","MEAN_MOTION_DDOT":"0.0000000000000","TLE_LINE1":"1 48651U 21044P   21358.82243704  .00001480  00000-0  11827-3 0  9999","PERIOD":"95.592","RA_OF_ASC_NODE":"176.3813","REF_FRAME":"TEME","MEAN_MOTION":"15.06394896","OBJECT_TYPE":"PAYLOAD","MEAN_MOTION_DOT":"0.00001480","ECCENTRICITY":"0.00023220","SITE":"AFETR","TIME_SYSTEM":"UTC","OBJECT_ID":"2021-044P","BSTAR":"0.00011827000000","EPHEMERIS_TYPE":"0","REV_AT_EPOCH":"3221","INCLINATION":"53.0553","ELEMENT_SET_NO":"999"},{"MEAN_MOTION_DOT":"0.00001377","EPHEMERIS_TYPE":"0","BSTAR":"0.00011138000000","ELEMENT_SET_NO":"999","INCLINATION":"53.0547","REV_AT_EPOCH":"3221","TIME_SYSTEM":"UTC","OBJECT_ID":"2021-044Q","SITE":"AFETR","ECCENTRICITY":"0.00027280","RA_OF_ASC_NODE":"176.4033","REF_FRAME":"TEME","TLE_LINE1":"1 48652U 21044Q   21358.81873056  .00001377  00000-0  11138-3 0  9998","PERIOD":"95.592","OBJECT_TYPE":"PAYLOAD","MEAN_MOTION":"15.06401202","GP_ID":"192398835","SEMIMAJOR_AXIS":"6925.345","OBJECT_NAME":"STARLINK-2727","LAUNCH_DATE":"2021-05-26","PERIAPSIS":"545.321","NORAD_CAT_ID":"48652","CLASSIFICATION_TYPE":"U","MEAN_MOTION_DDOT":"0.0000000000000","MEAN_ANOMALY":"273.0924","APOAPSIS":"549.099","ARG_OF_PERICENTER":"87.0377","TLE_LINE2":"2 48652  53.0547 176.4033 0002728  87.0377 273.0924 15.06401202 32212","EPOCH":"2021-12-24T19:38:58.320384","COUNTRY_CODE":"US","CENTER_NAME":"EARTH","RCS_SIZE":"LARGE","DECAY_DATE":null,"MEAN_ELEMENT_THEORY":"SGP4","FILE":"3250462"},{"OBJECT_TYPE":"PAYLOAD","MEAN_MOTION":"15.06386806","RA_OF_ASC_NODE":"176.1226","REF_FRAME":"TEME","TLE_LINE1":"1 48653U 21044R   21358.88141483 -.00000683  00000-0 -26909-4 0  9992","PERIOD":"95.593","EPHEMERIS_TYPE":"0","BSTAR":"-0.00002690900000","INCLINATION":"53.0542","REV_AT_EPOCH":"3222","ELEMENT_SET_NO":"999","SITE":"AFETR","ECCENTRICITY":"0.00026840","TIME_SYSTEM":"UTC","OBJECT_ID":"2021-044R","MEAN_MOTION_DOT":"-0.00000683","DECAY_DATE":null,"MEAN_ELEMENT_THEORY":"SGP4","FILE":"3250462","COUNTRY_CODE":"US","TLE_LINE2":"2 48653  53.0542 176.1226 0002684  85.1765 274.9530 15.06386806 32226","EPOCH":"2021-12-24T21:09:14.241312","RCS_SIZE":"LARGE","CENTER_NAME":"EARTH","CLASSIFICATION_TYPE":"U","MEAN_MOTION_DDOT":"0.0000000000000","ARG_OF_PERICENTER":"85.1765","MEAN_ANOMALY":"274.9530","APOAPSIS":"549.113","GP_ID":"192399071","SEMIMAJOR_AXIS":"6925.389","LAUNCH_DATE":"2021-05-26","OBJECT_NAME":"STARLINK-2720","NORAD_CAT_ID":"48653","PERIAPSIS":"545.395"},{"MEAN_MOTION":"15.06392451","OBJECT_TYPE":"PAYLOAD","PERIOD":"95.593","TLE_LINE1":"1 48654U 21044S   21358.87772357  .00001067  00000-0  90587-4 0  9990","REF_FRAME":"TEME","RA_OF_ASC_NODE":"176.1503","OBJECT_ID":"2021-044S","TIME_SYSTEM":"UTC","ECCENTRICITY":"0.00025530","SITE":"AFETR","ELEMENT_SET_NO":"999","INCLINATION":"53.0534","REV_AT_EPOCH":"3222","EPHEMERIS_TYPE":"0","BSTAR":"0.00009058700000","MEAN_MOTION_DOT":"0.00001067","FILE":"3250462","MEAN_ELEMENT_THEORY":"SGP4","DECAY_DATE":null,"CENTER_NAME":"EARTH","RCS_SIZE":"LARGE","TLE_LINE2":"2 48654  53.0534 176.1503 0002553  87.0432 273.0849 15.06392451 32229","COUNTRY_CODE":"US","EPOCH":"2021-12-24T21:03:55.316448","APOAPSIS":"549.005","MEAN_ANOMALY":"273.0849","ARG_OF_PERICENTER":"87.0432","MEAN_MOTION_DDOT":"0.0000000000000","CLASSIFICATION_TYPE":"U","NORAD_CAT_ID":"48654","PERIAPSIS":"545.469","OBJECT_NAME":"STARLINK-2651","LAUNCH_DATE":"2021-05-26","SEMIMAJOR_AXIS":"6925.372","GP_ID":"192399308"},{"RA_OF_ASC_NODE":"176.1631","REF_FRAME":"TEME","TLE_LINE1":"1 48655U 21044T   21358.87404109  .00000913  00000-0  80208-4 0  9996","PERIOD":"95.593","OBJECT_TYPE":"PAYLOAD","MEAN_MOTION":"15.06384149","MEAN_MOTION_DOT":"0.00000913","EPHEMERIS_TYPE":"0","BSTAR":"0.00008020800000","ELEMENT_SET_NO":"999","REV_AT_EPOCH":"3222","INCLINATION":"53.0547","TIME_SYSTEM":"UTC","OBJECT_ID":"2021-044T","SITE":"AFETR","ECCENTRICITY":"0.00024330","TLE_LINE2":"2 48655  53.0547 176.1631 0002433  84.5967 275.5299 15.06384149 32229","EPOCH":"2021-12-24T20:58:37.150176","COUNTRY_CODE":"US","CENTER_NAME":"EARTH","RCS_SIZE":"LARGE","DECAY_DATE":null,"MEAN_ELEMENT_THEORY":"SGP4","FILE":"3250462","GP_ID":"192399544","SEMIMAJOR_AXIS":"6925.397","OBJECT_NAME":"STARLINK-2657","LAUNCH_DATE":"2021-05-26","PERIAPSIS":"545.577","NORAD_CAT_ID":"48655","CLASSIFICATION_TYPE":"U","MEAN_MOTION_DDOT":"0.0000000000000","MEAN_ANOMALY":"275.5299","APOAPSIS":"548.947","ARG_OF_PERICENTER":"84.5967"},{"REF_FRAME":"TEME","RA_OF_ASC_NODE":"176.1732","PERIOD":"95.593","TLE_LINE1":"1 48656U 21044U   21358.87034988  .00001602  00000-0  12646-3 0  9997","OBJECT_TYPE":"PAYLOAD","MEAN_MOTION":"15.06393159","MEAN_MOTION_DOT":"0.00001602","ELEMENT_SET_NO":"999","REV_AT_EPOCH":"3222","INCLINATION":"53.0542","BSTAR":"0.00012646000000","EPHEMERIS_TYPE":"0","TIME_SYSTEM":"UTC","OBJECT_ID":"2021-044U","SITE":"AFETR","ECCENTRICITY":"0.00024220","EPOCH":"2021-12-24T20:53:18.229632","TLE_LINE2":"2 48656  53.0542 176.1732 0002422  90.8506 269.2761 15.06393159 32229","COUNTRY_CODE":"US","CENTER_NAME":"EARTH","RCS_SIZE":"LARGE","DECAY_DATE":null,"FILE":"3250462","MEAN_ELEMENT_THEORY":"SGP4","SEMIMAJOR_AXIS":"6925.370","GP_ID":"192398364","PERIAPSIS":"545.557","NORAD_CAT_ID":"48656","OBJECT_NAME":"STARLINK-2701","LAUNCH_DATE":"2021-05-26","MEAN_MOTION_DDOT":"0.0000000000000","CLASSIFICATION_TYPE":"U","MEAN_ANOMALY":"269.2761","APOAPSIS":"548.912","ARG_OF_PERICENTER":"90.8506"}];
